NORAD_CAT_ID,OBJECT_NAME,OBJECT_TYPE,EPOCH,MEAN_MOTION,ECCENTRICITY,INCLINATION,RA_OF_ASC_NODE,ARG_OF_PERICENTER,MEAN_ANOMALY,BSTAR,MEAN_MOTION_DOT,MEAN_MOTION_DDOT,TLE_LINE0,TLE_LINE1,TLE_LINE2,SEMIMAJOR_AXIS,PERIOD,APOGEE,PERIGEE,DECAYED
52105.0,STARLINK-3706,PAYLOAD,2024-04-22 18:45:04,15.08846969,0.0001468,53.2185,278.282,79.8301,280.2857,0.00012772,1.746e-05,0.0,0 STARLINK-3706,1 52105U 22029T   24113.78130280  .00001746  00000-0  12772-3 0  9998,2 52105  53.2185 278.2820 0001468  79.8301 280.2857 15.08846969117237,6917.859,95.437,540.74,538.709,0.0
52105.0,STARLINK-3706,PAYLOAD,2024-04-23 10:38:56,15.08840136,0.0001565,53.2178,275.3108,60.0653,300.0495,3.5246e-05,2.73e-06,0.0,0 STARLINK-3706,1 52105U 22029T   24114.44370749  .00000273  00000-0  35246-4 0  9994,2 52105  53.2178 275.3108 0001565  60.0653 300.0495 15.08840136117336,6917.88,95.438,540.828,538.662,0.0
52105.0,STARLINK-3706,PAYLOAD,2024-04-23 17:00:28,15.08844327,0.0001992,53.2178,274.1207,54.0423,306.0753,0.00010584,1.397e-05,0.0,0 STARLINK-3706,1 52105U 22029T   24114.70866573  .00001397  00000-0  10584-3 0  9993,2 52105  53.2178 274.1207 0001992  54.0423 306.0753 15.08844327117378,6917.867,95.437,541.11,538.354,0.0
52105.0,STARLINK-3706,PAYLOAD,2024-04-24 10:29:43,15.08839577,0.0001224,53.2172,270.8459,81.5327,278.5804,6.9051e-05,8.11e-06,0.0,0 STARLINK-3706,1 52105U 22029T   24115.43730790  .00000811  00000-0  69051-4 0  9999,2 52105  53.2172 270.8459 0001224  81.5327 278.5804 15.08839577117483,6917.882,95.438,540.593,538.9,0.0
52105.0,STARLINK-3706,PAYLOAD,2024-04-24 13:40:29,15.08840754,0.0001487,53.2178,270.2542,86.5715,273.5447,0.00015822,2.231e-05,0.0,0 STARLINK-3706,1 52105U 22029T   24115.56978925  .00002231  00000-0  15822-3 0  9991,2 52105  53.2178 270.2542 0001487  86.5715 273.5447 15.08840754117503,6917.878,95.438,540.772,538.714,0.0
52105.0,STARLINK-3706,PAYLOAD,2024-04-24 16:51:15,15.08845119,0.0001401,53.2182,269.6584,81.8432,278.2719,0.00019031,2.743e-05,0.0,0 STARLINK-3706,1 52105U 22029T   24115.70226689  .00002743  00000-0  19031-3 0  9994,2 52105  53.2182 269.6584 0001401  81.8432 278.2719 15.08845119117522,6917.865,95.437,540.699,538.761,0.0
52105.0,STARLINK-3706,PAYLOAD,2024-04-25 13:31:17,15.08839392,0.0001523,53.2182,265.7956,91.7845,268.3322,7.5409e-05,9.12e-06,0.0,0 STARLINK-3706,1 52105U 22029T   24116.56339166  .00000912  00000-0  75409-4 0  9992,2 52105  53.2182 265.7956 0001523  91.7845 268.3322 15.08839392117655,6917.882,95.438,540.801,538.694,0.0
52105.0,STARLINK-3706,PAYLOAD,2024-04-25 15:06:40,15.08840246,0.0001539,53.219,265.4968,103.6067,256.5097,7.7201e-05,9.41e-06,0.0,0 STARLINK-3706,1 52105U 22029T   24116.62963045  .00000941  00000-0  77201-4 0  9992,2 52105  53.2190 265.4968 0001539 103.6067 256.5097 15.08840246117669,6917.88,95.438,540.809,538.68,0.0
52105.0,STARLINK-3706,PAYLOAD,2024-04-25 16:42:03,15.08841284,0.000145,53.2188,265.1982,101.3264,258.7891,0.00010929,1.452e-05,0.0,0 STARLINK-3706,1 52105U 22029T   24116.69587003  .00001452  00000-0  10929-3 0  9996,2 52105  53.2188 265.1982 0001450 101.3264 258.7891 15.08841284117675,6917.876,95.437,540.745,538.738,0.0
52105.0,STARLINK-3706,PAYLOAD,2024-04-26 13:22:04,15.08840039,0.0001378,53.2193,261.3346,90.6414,269.4736,0.00012383,1.683e-05,0.0,0 STARLINK-3706,1 52105U 22029T   24117.55699418  .00001683  00000-0  12383-3 0  9998,2 52105  53.2193 261.3346 0001378  90.6414 269.4736 15.08840039117808,6917.88,95.438,540.699,538.792,0.0
52105.0,STARLINK-3706,PAYLOAD,2024-04-26 16:32:50,15.08848562,0.0001517,53.2192,260.7408,92.9882,267.1284,0.00028731,4.289e-05,0.0,0 STARLINK-3706,1 52105U 22029T   24117.68947058  .00004289  00000-0  28731-3 0  9997,2 52105  53.2192 260.7408 0001517  92.9882 267.1284 15.08848562117822,6917.854,95.437,540.769,538.67,0.0
52105.0,STARLINK-3706,PAYLOAD,2024-04-27 13:12:51,15.08835354,0.0001298,53.2179,256.8714,88.9829,271.1312,-1.8381e-05,-5.8e-06,0.0,0 STARLINK-3706,1 52105U 22029T   24118.55059585 -.00000580  00000-0 -18381-4 0  9996,2 52105  53.2179 256.8714 0001298  88.9829 271.1312 15.08835354117951,6917.895,95.438,540.658,538.862,0.0
52105.0,STARLINK-3706,PAYLOAD,2024-04-27 17:59:00,15.08851741,0.0001349,53.2185,255.9807,96.2177,263.8969,0.0003079,4.617e-05,0.0,0 STARLINK-3706,1 52105U 22029T   24118.74931009  .00004617  00000-0  30790-3 0  9997,2 52105  53.2185 255.9807 0001349  96.2177 263.8969 15.08851741117983,6917.845,95.437,540.643,538.776,0.0
52105.0,STARLINK-3706,PAYLOAD,2024-04-28 13:03:38,15.08829053,0.0001553,53.2178,252.4142,90.7853,269.3317,-0.00018665,-3.256e-05,0.0,0 STARLINK-3706,1 52105U 22029T   24119.54420070 -.00003256  00000-0 -18665-3 0  9994,2 52105  53.2178 252.4142 0001553  90.7853 269.3317 15.08829053118100,6917.914,95.438,540.853,538.704,0.0
52105.0,STARLINK-3706,PAYLOAD,2024-04-28 14:39:02,15.08829266,0.0001521,53.2177,252.1169,91.3015,268.8151,-0.00016445,-2.903e-05,0.0,0 STARLINK-3706,1 52105U 22029T   24119.61044102 -.00002903  00000-0 -16445-3 0  9992,2 52105  53.2177 252.1169 0001521  91.3015 268.8151 15.08829266118114,6917.913,95.438,540.83,538.726,0.0
52105.0,STARLINK-3706,PAYLOAD,2024-04-28 19:25:11,15.08841015,0.0001187,53.2172,251.2199,103.8841,256.2283,0.00012217,1.657e-05,0.0,0 STARLINK-3706,1 52105U 22029T   24119.80915534  .00001657  00000-0  12217-3 0  9995,2 52105  53.2172 251.2199 0001187 103.8841 256.2283 15.08841015118142,6917.877,95.437,540.563,538.921,0.0
52105.0,STARLINK-3706,PAYLOAD,2024-04-29 12:54:26,15.08832551,0.0001187,53.2178,247.9521,84.7716,275.3412,4.5038e-05,4.29e-06,0.0,0 STARLINK-3706,1 52105U 22029T   24120.53780288  .00000429  00000-0  45038-4 0  9997,2 52105  53.2178 247.9521 0001187  84.7716 275.3412 15.08832551118250,6917.903,95.438,540.589,538.947,0.0
52105.0,STARLINK-3706,PAYLOAD,2024-04-29 14:29:49,15.08840678,0.0001363,53.217,247.6524,92.7725,267.3423,-1.2336e-05,-4.84e-06,0.0,0 STARLINK-3706,1 52105U 22029T   24120.60403987 -.00000484  00000-0 -12336-4 0  9991,2 52105  53.2170 247.6524 0001363  92.7725 267.3423 15.08840678118260,6917.878,95.438,540.686,538.8,0.0
52105.0,STARLINK-3706,PAYLOAD,2024-04-29 16:05:12,15.08843177,0.0001622,53.2182,247.3568,68.179,291.9374,6.0648e-05,6.77e-06,0.0,0 STARLINK-3706,1 52105U 22029T   24120.67028075  .00000677  00000-0  60648-4 0  9990,2 52105  53.2182 247.3568 0001622  68.1790 291.9374 15.08843177118271,6917.871,95.437,540.858,538.614,0.0
52105.0,STARLINK-3706,PAYLOAD,2024-04-30 01:37:31,15.08842917,0.0001314,53.2177,245.5742,92.7352,267.3791,0.0002503,3.698e-05,0.0,0 STARLINK-3706,1 52105U 22029T   24121.06772022  .00003698  00000-0  25030-3 0  9993,2 52105  53.2177 245.5742 0001314  92.7352 267.3791 15.08842917118332,6917.871,95.437,540.645,538.827,0.0
52105.0,STARLINK-3706,PAYLOAD,2024-04-30 14:20:36,15.08843135,0.0001231,53.2164,243.1957,86.343,273.7703,0.00025543,3.78e-05,0.0,0 STARLINK-3706,1 52105U 22029T   24121.59764016  .00003780  00000-0  25543-3 0  9996,2 52105  53.2164 243.1957 0001231  86.3430 273.7703 15.08843135118410,6917.871,95.437,540.587,538.884,0.0
52105.0,STARLINK-3706,PAYLOAD,2024-05-01 14:11:22,15.0885128,0.0001141,53.2169,238.7323,95.9641,264.1482,9.1112e-05,1.163e-05,0.0,0 STARLINK-3706,1 52105U 22029T   24122.59123139  .00001163  00000-0  91112-4 0  9991,2 52105  53.2169 238.7323 0001141  95.9641 264.1482 15.08851280118566,6917.846,95.437,540.5,538.922,0.0
52105.0,STARLINK-3706,PAYLOAD,2024-05-01 17:22:08,15.08858552,0.0001306,53.2185,238.138,86.6518,273.4624,0.00012091,1.638e-05,0.0,0 STARLINK-3706,1 52105U 22029T   24122.72370612  .00001638  00000-0  12091-3 0  9991,2 52105  53.2185 238.1380 0001306  86.6518 273.4624 15.08858552118586,6917.824,95.436,540.592,538.785,0.0
52105.0,STARLINK-3706,PAYLOAD,2024-05-02 01:19:05,15.08840968,0.000179,53.218,236.6514,92.652,267.4677,1.8355e-05,4e-08,0.0,0 STARLINK-3706,1 52105U 22029T   24123.05491910  .00000004  00000-0  18355-4 0  9999,2 52105  53.2180 236.6514 0001790  92.6520 267.4677 15.08840968118639,6917.877,95.437,540.981,538.504,0.0
52105.0,STARLINK-3706,PAYLOAD,2024-05-02 14:02:10,15.08841178,0.0001349,53.2184,234.2735,101.6296,258.4848,-3.4425e-05,-8.36e-06,0.0,0 STARLINK-3706,1 52105U 22029T   24123.58483927 -.00000836  00000-0 -34425-4 0  9997,2 52105  53.2184 234.2735 0001349 101.6296 258.4848 15.08841178118716,6917.877,95.437,540.675,538.809,0.0
52105.0,STARLINK-3706,PAYLOAD,2024-05-03 13:52:56,15.08854212,0.000133,53.2163,229.8129,86.2709,273.8435,0.00020929,3.046e-05,0.0,0 STARLINK-3706,1 52105U 22029T   24124.57842776  .00003046  00000-0  20929-3 0  9995,2 52105  53.2163 229.8129 0001330  86.2709 273.8435 15.08854212118869,6917.837,95.437,540.622,538.782,0.0
52105.0,STARLINK-3706,PAYLOAD,2024-05-03 23:25:15,15.0883748,0.0001534,53.2157,228.029,86.0789,274.0378,0.00010194,1.335e-05,0.0,0 STARLINK-3706,1 52105U 22029T   24124.97587644  .00001335  00000-0  10194-3 0  9991,2 52105  53.2157 228.0290 0001534  86.0789 274.0378 15.08837480118928,6917.888,95.438,540.814,538.692,0.0
52105.0,STARLINK-3706,PAYLOAD,2024-05-04 12:08:21,15.08824443,0.0001403,53.2174,225.6501,109.1192,250.9952,-0.00012033,-2.202e-05,0.0,0 STARLINK-3706,1 52105U 22029T   24125.50580500 -.00002202  00000-0 -12033-3 0  9995,2 52105  53.2174 225.6501 0001403 109.1192 250.9952 15.08824443119001,6917.928,95.439,540.764,538.822,0.0
52105.0,STARLINK-3706,PAYLOAD,2024-05-05 05:37:35,15.08843227,0.0001225,53.2178,222.3799,104.3684,255.7444,0.00039677,6.033e-05,0.0,0 STARLINK-3706,1 52105U 22029T   24126.23444376  .00006033  00000-0  39677-3 0  9993,2 52105  53.2178 222.3799 0001225 104.3684 255.7444 15.08843227119115,6917.871,95.437,540.583,538.888,0.0
52105.0,STARLINK-3706,PAYLOAD,2024-05-05 13:34:31,15.08862822,0.0001133,53.2173,220.8937,104.6212,255.4906,0.0014997,0.00023675,0.0,0 STARLINK-3706,1 52105U 22029T   24126.56564287  .00023675  00000-0  14997-2 0  9991,2 52105  53.2173 220.8937 0001133 104.6212 255.4906 15.08862822119162,6917.811,95.436,540.459,538.892,0.0
